{"type":"FeatureCollection","features":[{"type":"Feature","properties":{"Localidad":"José León Suárez"},"geometry":{"type":"Polygon","coordinates":[[[-58.600151525149805,-34.490234643468206],[-58.55551838335573,-34.50571595030049],[-58.53201546783576,-34.53362980977407],[-58.54419158752709,-34.54998664035788],[-58.56616424341219,-34.54233512756161],[-58.60009746907676,-34.5113158435834],[-58.600151525149805,-34.490234643468206]]]}},{"type":"Feature","properties":{"Localidad":"Loma Hermosa"},"geometry":{"type":"Polygon","coordinates":[[[-58.61795524952397,-34.53036341836212],[-58.60009746907676,-34.5113158435834],[-58.56616424341219,-34.54233512756161],[-58.57035063689739,-34.55876082812981],[-58.600613529561595,-34.57809015691354],[-58.6182095162036,-34.55848874701227],[-58.61795524952397,-34.53036341836212]]]}},{"type":"Feature","properties":{"Localidad":"Villa Ballester"},"geometry":{"type":"Polygon","coordinates":[[[-58.56616424341219,-34.54233512756161],[-58.54419158752709,-34.54998664035788],[-58.52077512411294,-34.56866376690494],[-58.54349482418049,-34.57911401168922],[-58.56691586012911,-34.57233155239481],[-58.57035063689739,-34.55876082812981],[-58.56616424341219,-34.54233512756161]]]}},{"type":"Feature","properties":{"Localidad":"Billinghurst"},"geometry":{"type":"Polygon","coordinates":[[[-58.600613529561595,-34.57809015691354],[-58.57035063689739,-34.55876082812981],[-58.56691586012911,-34.57233155239481],[-58.57432857932893,-34.58454375012932],[-58.58456061970448,-34.59736756772148],[-58.600613529561595,-34.57809015691354]]]}},{"type":"Feature","properties":{"Localidad":"San Andrés"},"geometry":{"type":"Polygon","coordinates":[[[-58.54419158752709,-34.54998664035788],[-58.53201546783576,-34.53362980977407],[-58.51125448309951,-34.55211946564473],[-58.52077512411294,-34.56866376690494],[-58.54419158752709,-34.54998664035788]]]}},{"type":"Feature","properties":{"Localidad":"Villa Maipú"},"geometry":{"type":"Polygon","coordinates":[[[-58.52077512411294,-34.56866376690494],[-58.51125448309951,-34.55211946564473],[-58.50995592756936,-34.57559417073251],[-58.52533206918728,-34.58540646152944],[-58.53517651401423,-34.57687820226604],[-58.52077512411294,-34.56866376690494]]]}},{"type":"Feature","properties":{"Localidad":"Villa Lynch"},"geometry":{"type":"Polygon","coordinates":[[[-58.58456061970448,-34.59736756772148],[-58.57432857932893,-34.58454375012932],[-58.54349482418049,-34.57911401168922],[-58.53517651401423,-34.57687820226604],[-58.52533206918728,-34.58540646152944],[-58.54276756640893,-34.59699674748754],[-58.58456061970448,-34.59736756772148]]]}},{"type":"Feature","properties":{"Localidad":"San Martín"},"geometry":{"type":"Polygon","coordinates":[[[-58.54349482418049,-34.57911401168922],[-58.52077512411294,-34.56866376690494],[-58.53517651401423,-34.57687820226604],[-58.54349482418049,-34.57911401168922]]]}}]}