{
"type": "FeatureCollection",
"name": "RENABAP23",
"xy_coordinate_resolution": 1e-06,
"features": [
{"type":"Feature","properties":{"NOMBRE_BAR":"Villa Hidalgo","FAMILIAS":2750},"geometry":{"type":"Polygon","coordinates":[[[-58.586925,-34.506717],[-58.586881,-34.506472],[-58.587353,-34.506411],[-58.588958,-34.506366],[-58.589306,-34.506425],[-58.58939,-34.507856],[-58.588181,-34.509081],[-58.588281,-34.509291],[-58.589368,-34.510195],[-58.583301,-34.514973],[-58.582196,-34.514061],[-58.585666,-34.511303],[-58.582744,-34.508943],[-58.584199,-34.507766],[-58.584948,-34.508364],[-58.586925,-34.506717]]]}},
{"type":"Feature","properties":{"NOMBRE_BAR":"Barrio Nuevo","FAMILIAS":660},"geometry":{"type":"Polygon","coordinates":[[[-58.584824,-34.517512],[-58.585282,-34.517665],[-58.58546,-34.517335],[-58.586081,-34.51746],[-58.585964,-34.517811],[-58.586688,-34.518],[-58.586064,-34.519397],[-58.586743,-34.519601],[-58.586524,-34.520113],[-58.582997,-34.519083],[-58.583159,-34.518724],[-58.582365,-34.518287],[-58.582085,-34.518519],[-58.578203,-34.519538],[-58.577923,-34.519239],[-58.584466,-34.514049],[-58.586774,-34.515947],[-58.586039,-34.516542],[-58.586042,-34.51661],[-58.584824,-34.517512]]]}},
{"type":"Feature","properties":{"NOMBRE_BAR":"La Rana","FAMILIAS":605},"geometry":{"type":"Polygon","coordinates":[[[-58.538839,-34.55114],[-58.538416,-34.551523],[-58.537467,-34.550951],[-58.535869,-34.549821],[-58.536614,-34.549215],[-58.53732,-34.549834],[-58.540619,-34.547139],[-58.542033,-34.548671],[-58.54161,-34.548942],[-58.54169,-34.549009],[-58.541144,-34.549438],[-58.541258,-34.549542],[-58.539084,-34.55136],[-58.538839,-34.55114]]]}},
{"type":"Feature","properties":{"NOMBRE_BAR":"Martínez","FAMILIAS":20},"geometry":{"type":"Polygon","coordinates":[[[-58.524967,-34.561935],[-58.524709,-34.562214],[-58.52438,-34.562032],[-58.524632,-34.561752],[-58.524967,-34.561935]]]}},
{"type":"Feature","properties":{"NOMBRE_BAR":"La Segunda","FAMILIAS":103},"geometry":{"type":"Polygon","coordinates":[[[-58.518756,-34.560601],[-58.518662,-34.560548],[-58.518591,-34.56063],[-58.518265,-34.560443],[-58.518456,-34.56023],[-58.518378,-34.560187],[-58.518611,-34.559903],[-58.518568,-34.559877],[-58.518041,-34.560502],[-58.51792,-34.560435],[-58.518048,-34.560266],[-58.517985,-34.560229],[-58.518056,-34.560144],[-58.517727,-34.559957],[-58.517801,-34.559876],[-58.518224,-34.560102],[-58.518408,-34.559873],[-58.51797,-34.55964],[-58.518076,-34.55946],[-58.518493,-34.559694],[-58.518424,-34.55977],[-58.518871,-34.560036],[-58.518979,-34.559905],[-58.519236,-34.560064],[-58.518756,-34.560601]]]}},
{"type":"Feature","properties":{"NOMBRE_BAR":"Sin Nombre","FAMILIAS":187},"geometry":{"type":"Polygon","coordinates":[[[-58.520189,-34.558887],[-58.520188,-34.558942],[-58.519816,-34.559379],[-58.519202,-34.559014],[-58.518999,-34.559244],[-58.518488,-34.558918],[-58.519029,-34.558224],[-58.519089,-34.558214],[-58.520189,-34.558887]]]}},
{"type":"Feature","properties":{"NOMBRE_BAR":"Mitre y Boulogne Sur Mer","FAMILIAS":108},"geometry":{"type":"Polygon","coordinates":[[[-58.518791,-34.56176],[-58.518484,-34.562108],[-58.518511,-34.562132],[-58.518435,-34.562233],[-58.518363,-34.562232],[-58.517792,-34.561905],[-58.517788,-34.561823],[-58.518205,-34.561405],[-58.518791,-34.56176]]]}},
{"type":"Feature","properties":{"NOMBRE_BAR":"De Los Constituyentes y Mitre","FAMILIAS":35},"geometry":{"type":"Polygon","coordinates":[[[-58.516954,-34.561504],[-58.516743,-34.561758],[-58.516485,-34.561617],[-58.516705,-34.561332],[-58.516954,-34.561504]]]}},
{"type":"Feature","properties":{"NOMBRE_BAR":"La Carcova","FAMILIAS":4400},"geometry":{"type":"Polygon","coordinates":[[[-58.586503,-34.52011],[-58.587612,-34.520546],[-58.587898,-34.520775],[-58.588412,-34.521399],[-58.588062,-34.521641],[-58.587414,-34.520845],[-58.587241,-34.520752],[-58.58641,-34.520465],[-58.586243,-34.520672],[-58.585915,-34.520588],[-58.584979,-34.522761],[-58.584605,-34.522639],[-58.584434,-34.523003],[-58.583238,-34.524917],[-58.583199,-34.525085],[-58.582632,-34.525895],[-58.582292,-34.525832],[-58.582264,-34.52542],[-58.582158,-34.525348],[-58.582353,-34.525084],[-58.582317,-34.524918],[-58.582168,-34.524889],[-58.580992,-34.525843],[-58.580264,-34.525206],[-58.579872,-34.525473],[-58.578307,-34.524139],[-58.577867,-34.524447],[-58.576228,-34.523098],[-58.577843,-34.521879],[-58.578571,-34.522479],[-58.581466,-34.520174],[-58.581393,-34.520107],[-58.581521,-34.520002],[-58.580848,-34.519455],[-58.581388,-34.519022],[-58.582137,-34.519001],[-58.583016,-34.519111],[-58.586503,-34.52011]]]}},
{"type":"Feature","properties":{"NOMBRE_BAR":"Evita","FAMILIAS":39},"geometry":{"type":"Polygon","coordinates":[[[-58.58262,-34.527366],[-58.583607,-34.525123],[-58.583894,-34.525198],[-58.583805,-34.525941],[-58.583792,-34.526661],[-58.583884,-34.527777],[-58.583642,-34.527854],[-58.583015,-34.527512],[-58.58262,-34.527366]]]}},
{"type":"Feature","properties":{"NOMBRE_BAR":"Trece de Julio","FAMILIAS":259},"geometry":{"type":"Polygon","coordinates":[[[-58.579103,-34.532341],[-58.580398,-34.530904],[-58.581169,-34.529888],[-58.581619,-34.529239],[-58.582152,-34.528318],[-58.58262,-34.527366],[-58.583015,-34.527512],[-58.583642,-34.527854],[-58.583884,-34.527777],[-58.584387,-34.528063],[-58.584544,-34.527946],[-58.584728,-34.528084],[-58.580732,-34.531294],[-58.579009,-34.5328],[-58.57893,-34.532731],[-58.578245,-34.5333],[-58.578173,-34.533213],[-58.579103,-34.532341]]]}},
{"type":"Feature","properties":{"NOMBRE_BAR":"Independencia","FAMILIAS":3850},"geometry":{"type":"Polygon","coordinates":[[[-58.589931,-34.532518],[-58.586112,-34.535605],[-58.585468,-34.536067],[-58.584673,-34.536461],[-58.584026,-34.534558],[-58.582647,-34.532329],[-58.580507,-34.534034],[-58.579009,-34.5328],[-58.580732,-34.531294],[-58.585271,-34.527649],[-58.590508,-34.531982],[-58.589931,-34.532518]]]}},
{"type":"Feature","properties":{"NOMBRE_BAR":"Eucaliptus","FAMILIAS":880},"geometry":{"type":"Polygon","coordinates":[[[-58.590242,-34.536064],[-58.589634,-34.535538],[-58.589419,-34.535557],[-58.587914,-34.534198],[-58.58993,-34.532555],[-58.590534,-34.531996],[-58.5907,-34.531994],[-58.59242,-34.530531],[-58.593861,-34.531858],[-58.593038,-34.532559],[-58.593714,-34.533244],[-58.590242,-34.536064]]]}},
{"type":"Feature","properties":{"NOMBRE_BAR":"Pilar","FAMILIAS":88},"geometry":{"type":"Polygon","coordinates":[[[-58.528615,-34.579316],[-58.529051,-34.579665],[-58.528487,-34.580113],[-58.528072,-34.579771],[-58.528615,-34.579316]]]}},
{"type":"Feature","properties":{"NOMBRE_BAR":"Villa Progreso","FAMILIAS":110},"geometry":{"type":"Polygon","coordinates":[[[-58.52961,-34.588815],[-58.530036,-34.589164],[-58.529624,-34.589504],[-58.529154,-34.589197],[-58.52961,-34.588815]]]}},
{"type":"Feature","properties":{"NOMBRE_BAR":"Villa Tropezón","FAMILIAS":369},"geometry":{"type":"Polygon","coordinates":[[[-58.553934,-34.591567],[-58.554512,-34.591487],[-58.554288,-34.590445],[-58.554646,-34.590383],[-58.554871,-34.591419],[-58.555456,-34.591328],[-58.555647,-34.592241],[-58.554147,-34.592466],[-58.553934,-34.591567]]]}},
{"type":"Feature","properties":{"NOMBRE_BAR":"La Tranquila","FAMILIAS":220},"geometry":{"type":"Polygon","coordinates":[[[-58.554687,-34.583448],[-58.553906,-34.582776],[-58.554871,-34.582046],[-58.55565,-34.58268],[-58.554687,-34.583448]]]}},
{"type":"Feature","properties":{"NOMBRE_BAR":"Villa Palmera","FAMILIAS":110},"geometry":{"type":"Polygon","coordinates":[[[-58.556733,-34.58844],[-58.556564,-34.588645],[-58.555982,-34.588219],[-58.556784,-34.587428],[-58.557269,-34.587769],[-58.556718,-34.588395],[-58.556733,-34.58844]]]}},
{"type":"Feature","properties":{"NOMBRE_BAR":"La Catanga","FAMILIAS":198},"geometry":{"type":"Polygon","coordinates":[[[-58.556021,-34.579849],[-58.555326,-34.580425],[-58.55454,-34.57974],[-58.555242,-34.579189],[-58.556021,-34.579849]]]}},
{"type":"Feature","properties":{"NOMBRE_BAR":"Sin Nombre","FAMILIAS":66},"geometry":{"type":"Polygon","coordinates":[[[-58.575516,-34.571146],[-58.575883,-34.571475],[-58.575626,-34.571676],[-58.575808,-34.571825],[-58.575456,-34.5721],[-58.575292,-34.571936],[-58.575081,-34.572086],[-58.574723,-34.571743],[-58.575516,-34.571146]]]}},
{"type":"Feature","properties":{"NOMBRE_BAR":"Martín Fierro","FAMILIAS":198},"geometry":{"type":"MultiPolygon","coordinates":[[[[-58.57668,-34.564124],[-58.57679,-34.564531],[-58.576945,-34.564699],[-58.576399,-34.56507],[-58.57646,-34.565122],[-58.575989,-34.565487],[-58.575398,-34.564976],[-58.575078,-34.565222],[-58.574852,-34.564996],[-58.575449,-34.564524],[-58.575437,-34.564453],[-58.575669,-34.564398],[-58.57552,-34.563953],[-58.575973,-34.563837],[-58.576111,-34.564269],[-58.57668,-34.564124]]],[[[-58.579534,-34.56489],[-58.577316,-34.566648],[-58.576462,-34.565904],[-58.577418,-34.56515],[-58.577314,-34.565052],[-58.578147,-34.564315],[-58.578723,-34.564114],[-58.579534,-34.56489]]]]}},
{"type":"Feature","properties":{"NOMBRE_BAR":"Nueve de Julio","FAMILIAS":462},"geometry":{"type":"Polygon","coordinates":[[[-58.569908,-34.560416],[-58.569668,-34.560618],[-58.569852,-34.560854],[-58.568897,-34.561626],[-58.56862,-34.561428],[-58.567386,-34.56029],[-58.568617,-34.559316],[-58.569908,-34.560416]]]}},
{"type":"Feature","properties":{"NOMBRE_BAR":"Unión Vecinal Nueva Vida Para Nuestros Hijos","FAMILIAS":55},"geometry":{"type":"Polygon","coordinates":[[[-58.582394,-34.559678],[-58.581442,-34.558875],[-58.582008,-34.558424],[-58.582931,-34.559206],[-58.582394,-34.559678]]]}},
{"type":"Feature","properties":{"NOMBRE_BAR":"Sarmiento","FAMILIAS":110},"geometry":{"type":"Polygon","coordinates":[[[-58.582966,-34.559221],[-58.582052,-34.55841],[-58.582615,-34.55799],[-58.583484,-34.558839],[-58.582966,-34.559221]]]}},
{"type":"Feature","properties":{"NOMBRE_BAR":"Arenera","FAMILIAS":440},"geometry":{"type":"Polygon","coordinates":[[[-58.584423,-34.558052],[-58.584117,-34.557758],[-58.584335,-34.55759],[-58.584204,-34.557361],[-58.584924,-34.556876],[-58.584891,-34.556671],[-58.584643,-34.556398],[-58.585393,-34.555845],[-58.585484,-34.555905],[-58.586015,-34.557615],[-58.584423,-34.558052]]]}},
{"type":"Feature","properties":{"NOMBRE_BAR":"Billinghurst II","FAMILIAS":88},"geometry":{"type":"Polygon","coordinates":[[[-58.585182,-34.560301],[-58.584378,-34.560932],[-58.583628,-34.560172],[-58.584393,-34.559589],[-58.585182,-34.560301]]]}},
{"type":"Feature","properties":{"NOMBRE_BAR":"Sarmiento II","FAMILIAS":110},"geometry":{"type":"Polygon","coordinates":[[[-58.58356,-34.560101],[-58.582823,-34.559375],[-58.583518,-34.558848],[-58.584305,-34.559553],[-58.58356,-34.560101]]]}},
{"type":"Feature","properties":{"NOMBRE_BAR":"Ocho de Mayo","FAMILIAS":770},"geometry":{"type":"Polygon","coordinates":[[[-58.596128,-34.54567],[-58.596099,-34.545695],[-58.593961,-34.543689],[-58.597522,-34.541185],[-58.599403,-34.539798],[-58.599452,-34.539931],[-58.59768,-34.541261],[-58.598483,-34.542646],[-58.600227,-34.541597],[-58.601945,-34.544459],[-58.600043,-34.54512],[-58.598973,-34.545382],[-58.597506,-34.545579],[-58.596697,-34.546189],[-58.596128,-34.54567]]]}},
{"type":"Feature","properties":{"NOMBRE_BAR":"Costa del Lago","FAMILIAS":638},"geometry":{"type":"Polygon","coordinates":[[[-58.601058,-34.545111],[-58.601163,-34.545473],[-58.601037,-34.545767],[-58.601072,-34.546171],[-58.60155,-34.5461],[-58.601669,-34.54683],[-58.60071,-34.548013],[-58.600588,-34.548283],[-58.599693,-34.548974],[-58.596711,-34.546206],[-58.597528,-34.5456],[-58.598963,-34.545395],[-58.600106,-34.545121],[-58.601198,-34.544737],[-58.601251,-34.544881],[-58.601058,-34.545111]]]}},
{"type":"Feature","properties":{"NOMBRE_BAR":"Villa Zagala","FAMILIAS":44},"geometry":{"type":"Polygon","coordinates":[[[-58.527633,-34.554472],[-58.527298,-34.554225],[-58.527506,-34.55398],[-58.527689,-34.554087],[-58.527982,-34.553708],[-58.527747,-34.553572],[-58.528022,-34.553222],[-58.52841,-34.553412],[-58.528089,-34.5538],[-58.528336,-34.554024],[-58.527633,-34.554472]]]}},
{"type":"Feature","properties":{"NOMBRE_BAR":"Loyola","FAMILIAS":1210},"geometry":{"type":"Polygon","coordinates":[[[-58.522552,-34.553551],[-58.523675,-34.551962],[-58.525432,-34.552821],[-58.525096,-34.553255],[-58.525032,-34.553218],[-58.524117,-34.554405],[-58.522552,-34.553551]]]}},
{"type":"Feature","properties":{"NOMBRE_BAR":"California","FAMILIAS":220},"geometry":{"type":"Polygon","coordinates":[[[-58.525478,-34.553493],[-58.525832,-34.553077],[-58.526398,-34.553373],[-58.526076,-34.553789],[-58.525478,-34.553493]]]}},
{"type":"Feature","properties":{"NOMBRE_BAR":"San José","FAMILIAS":9},"geometry":{"type":"Polygon","coordinates":[[[-58.526592,-34.554341],[-58.526432,-34.554557],[-58.526065,-34.554364],[-58.52623,-34.554152],[-58.526592,-34.554341]]]}},
{"type":"Feature","properties":{"NOMBRE_BAR":"La Unión","FAMILIAS":22},"geometry":{"type":"Polygon","coordinates":[[[-58.526362,-34.553446],[-58.526729,-34.553634],[-58.52643,-34.553992],[-58.526078,-34.553801],[-58.526362,-34.553446]]]}},
{"type":"Feature","properties":{"NOMBRE_BAR":"La California","FAMILIAS":100},"geometry":{"type":"Polygon","coordinates":[[[-58.523587,-34.556556],[-58.523404,-34.556781],[-58.523475,-34.55682],[-58.523124,-34.557082],[-58.522803,-34.556789],[-58.522807,-34.556721],[-58.523146,-34.556298],[-58.523587,-34.556556]]]}},
{"type":"Feature","properties":{"NOMBRE_BAR":"California","FAMILIAS":66},"geometry":{"type":"Polygon","coordinates":[[[-58.524503,-34.555437],[-58.524294,-34.555675],[-58.523881,-34.555432],[-58.524063,-34.555199],[-58.524503,-34.555437]]]}},
{"type":"Feature","properties":{"NOMBRE_BAR":"Sin Nombre","FAMILIAS":13},"geometry":{"type":"Polygon","coordinates":[[[-58.526707,-34.556063],[-58.526575,-34.556161],[-58.526271,-34.555932],[-58.526395,-34.555835],[-58.526707,-34.556063]]]}},
{"type":"Feature","properties":{"NOMBRE_BAR":"Morris","FAMILIAS":44},"geometry":{"type":"Polygon","coordinates":[[[-58.530835,-34.55389],[-58.530247,-34.554624],[-58.530128,-34.554537],[-58.530728,-34.553818],[-58.530835,-34.55389]]]}},
{"type":"Feature","properties":{"NOMBRE_BAR":"El Ombú","FAMILIAS":55},"geometry":{"type":"Polygon","coordinates":[[[-58.527344,-34.556694],[-58.527004,-34.55637],[-58.527419,-34.556073],[-58.527768,-34.55641],[-58.527344,-34.556694]]]}},
{"type":"Feature","properties":{"NOMBRE_BAR":"El Corralito","FAMILIAS":11},"geometry":{"type":"Polygon","coordinates":[[[-58.528393,-34.55639],[-58.528359,-34.556359],[-58.528313,-34.556393],[-58.528084,-34.556169],[-58.528348,-34.555986],[-58.5286,-34.556243],[-58.528393,-34.55639]]]}},
{"type":"Feature","properties":{"NOMBRE_BAR":"Plazoleta 9 de Julio","FAMILIAS":121},"geometry":{"type":"Polygon","coordinates":[[[-58.596122,-34.536896],[-58.596495,-34.537163],[-58.593922,-34.539231],[-58.593624,-34.538928],[-58.596122,-34.536896]]]}},
{"type":"Feature","properties":{"NOMBRE_BAR":"Nueve de Julio","FAMILIAS":1210},"geometry":{"type":"Polygon","coordinates":[[[-58.599115,-34.539552],[-58.597464,-34.540705],[-58.596537,-34.541434],[-58.596351,-34.541524],[-58.595289,-34.542329],[-58.595283,-34.54252],[-58.594516,-34.543048],[-58.594389,-34.542944],[-58.593649,-34.543357],[-58.5932,-34.543677],[-58.592737,-34.543242],[-58.59439,-34.541996],[-58.594423,-34.541813],[-58.593971,-34.541385],[-58.595117,-34.540506],[-58.595162,-34.540495],[-58.595589,-34.54089],[-58.595855,-34.540875],[-58.59708,-34.539977],[-58.597095,-34.539835],[-58.596614,-34.539398],[-58.597811,-34.538506],[-58.597862,-34.538509],[-58.598293,-34.538902],[-58.598424,-34.538962],[-58.598603,-34.538843],[-58.598849,-34.539122],[-58.598853,-34.539234],[-58.599115,-34.539552]]]}},
{"type":"Feature","properties":{"NOMBRE_BAR":"Altafini","FAMILIAS":77},"geometry":{"type":"MultiPolygon","coordinates":[[[[-58.571392,-34.575016],[-58.571187,-34.575182],[-58.570927,-34.574945],[-58.570715,-34.575111],[-58.569492,-34.574058],[-58.56989,-34.573721],[-58.570289,-34.574052],[-58.570488,-34.573905],[-58.570926,-34.574264],[-58.57113,-34.574102],[-58.57138,-34.574322],[-58.570967,-34.574652],[-58.571392,-34.575016]]],[[[-58.570848,-34.572989],[-58.571168,-34.573281],[-58.570434,-34.573859],[-58.570098,-34.573563],[-58.570848,-34.572989]]]]}},
{"type":"Feature","properties":{"NOMBRE_BAR":"Villa Sarmiento","FAMILIAS":209},"geometry":{"type":"Polygon","coordinates":[[[-58.57133,-34.582507],[-58.568575,-34.580022],[-58.569057,-34.579631],[-58.569611,-34.580152],[-58.569137,-34.580527],[-58.570224,-34.581503],[-58.570449,-34.581347],[-58.570271,-34.581185],[-58.57032,-34.581152],[-58.57051,-34.581301],[-58.571017,-34.580923],[-58.572132,-34.581818],[-58.57133,-34.582507]]]}},
{"type":"Feature","properties":{"NOMBRE_BAR":"Costa Esperanza","FAMILIAS":2970},"geometry":{"type":"Polygon","coordinates":[[[-58.59945,-34.556124],[-58.599358,-34.556027],[-58.595703,-34.554876],[-58.595115,-34.555354],[-58.594282,-34.554644],[-58.594338,-34.554447],[-58.593524,-34.554206],[-58.593234,-34.554018],[-58.599848,-34.548894],[-58.600621,-34.548345],[-58.600717,-34.548381],[-58.603525,-34.550903],[-58.603593,-34.550847],[-58.603699,-34.550855],[-58.605365,-34.552372],[-58.600628,-34.556002],[-58.600294,-34.556427],[-58.59945,-34.556124]]]}}
]
}
